ONEWEB-0120             
1 47266U 20100J   26008.28339674 -.00000334  00000+0 -96289-3 0  9994
2 47266  87.8915  22.4352 0001691  93.7256 266.4065 13.12441599243751
ONEWEB-0121             
1 47267U 20100K   26008.27139426 -.00000015  00000+0 -78102-4 0  9998
2 47267  87.8925  22.4083 0001781  84.4388 275.6944 13.12439907243665
ONEWEB-0122             
1 47268U 20100L   26008.26618069  .00000193  00000+0  50228-3 0  9996
2 47268  87.8926  22.4119 0001570  89.2163 270.9146 13.12445241243577
ONEWEB-0123             
1 47269U 20100M   26008.26123710  .00000364  00000+0  97557-3 0  9997
2 47269  87.8919  22.4370 0001813  94.1627 265.9709 13.12443510243711
ONEWEB-0124             
1 47270U 20100N   26008.32731661  .00000443  00000+0  11950-2 0  9996
2 47270  87.8916  22.4285 0001889  88.3889 271.7456 13.12443986243602
ONEWEB-0125             
1 47271U 20100P   26008.30528927 -.00000203  00000+0 -59849-3 0  9990
2 47271  87.8926  22.3985 0002032  91.4038 268.7323 13.12445775243665
ONEWEB-0126             
1 47272U 20100Q   26008.32576620  .00000450  00000+0  12145-2 0  9995
2 47272  87.8925  22.4175 0001670  94.6252 265.5068 13.12441909243731
ONEWEB-0127             
1 47273U 20100R   26008.29173003 -.00000432  00000+0 -12360-2 0  9991
2 47273  87.8920  22.4330 0001626  93.4932 266.6383 13.12441139243752
